{
"type": "FeatureCollection",
"name": "ne_10m_admin_0_countries",
"crs": { "type": "name", "properties": { "name": "urn:ogc:def:crs:OGC:1.3:CRS84" } },
"features": [
{ "type": "Feature", "properties": { "name": "Indonesia", "ISO3166-1-Alpha-3": "IDN", "ISO3166-1-Alpha-2": "ID" }, "geometry": { "type": "MultiPolygon", "coordinates": [ [ [ [ 117.703608, 4.163415 ], [ 117.705008, 4.161615 ], [ 117.706408, 4.159815 ] ] ] ] } },
{ "type": "Feature", "properties": { "name": "Malaysia", "ISO3166-1-Alpha-3": "MYS", "ISO3166-1-Alpha-2": "MY" }, "geometry": { "type": "MultiPolygon", "coordinates": [ [ [ [ 117.703608, 4.163415 ], [ 117.705008, 4.161615 ], [ 117.706408, 4.159815 ] ] ] ] } },
{ "type": "Feature", "properties": { "name": "Chile", "ISO3166-1-Alpha-3": "CHL", "ISO3166-1-Alpha-2": "CL" }, "geometry": { "type": "MultiPolygon", "coordinates": [ [ [ [ -69.510089, -17.506588 ], [ -69.508689, -17.508388 ], [ -69.507289, -17.510188 ] ] ] ] } }
]
}
